ONEWEB-0149             
1 48058U 21025S   24189.79217341 -.00000221  00000+0 -64018-3 0  9991
2 48058  87.8927 101.4288 0001957  85.1186 275.0166 13.13468704160374
ONEWEB-0148             
1 48059U 21025T   24189.83345675  .00000234  00000+0  60657-3 0  9996
2 48059  87.8932 101.4316 0001745  97.8377 262.2950 13.13469262160492
ONEWEB-0160             
1 48060U 21025U   24189.84931956 -.00000125  00000+0 -37685-3 0  9998
2 48060  87.8932 101.4244 0002904  76.6880 283.4573 13.13469929160447
ONEWEB-0163             
1 48061U 21025V   24189.75885229  .00000204  00000+0  52356-3 0  9998
2 48061  87.8930 101.4344 0001637  77.8556 282.2756 13.13468611160562
ONEWEB-0159             
1 48062U 21025W   24189.82392220  .00000373  00000+0  98665-3 0  9991
2 48062  87.8927 101.4048 0001773  82.2961 277.8370 13.13468558160484
ONEWEB-0164             
1 48063U 21025X   24189.80646971  .00000162  00000+0  40994-3 0  9993
2 48063  87.8927 101.4182 0002018  74.4033 285.7318 13.13471591160470
ONEWEB-0167             
1 48064U 21025Y   24190.14053084  .00000283  00000+0  74053-3 0  9997
2 48064  87.8930 101.3639 0001750  78.7092 281.4234 13.13468815160492
ONEWEB-0166             
1 48065U 21025Z   24189.78106150 -.00000237  00000+0 -68348-3 0  9990
2 48065  87.8924 101.4178 0001926  84.2109 275.9239 13.13468087160529
ONEWEB-0151             
1 48066U 21025AA  24190.16354689 -.00000177  00000+0 -51903-3 0  9999
2 48066  87.8927 101.3559 0001983  73.3201 286.8146 13.13472362160529
ONEWEB-0170             
1 48067U 21025AB  24189.79059824 -.00000320  00000+0 -91102-3 0  9995
2 48067  87.8927 101.4323 0002409  65.6776 294.4605 13.13469927160422
ONEWEB-0168             
1 48068U 21025AC  24190.15719090 -.00000102  00000+0 -31385-3 0  9991
2 48068  87.8931 101.3298 0001891  78.2838 281.8503 13.13468203160480
ONEWEB-0173             
1 48069U 21025AD  24189.76837137 -.00000088  00000+0 -27663-3 0  9997
2 48069  87.8931 101.4172 0001582  67.8014 292.3283 13.13468628160674
ONEWEB-0171             
1 48070U 21025AE  24189.80487881  .00000072  00000+0  16150-3 0  9991
2 48070  87.8930 101.4456 0001902  73.6835 286.4503 13.13469725160490
ONEWEB-0172             
1 48071U 21025AF  24190.16512162 -.00000203  00000+0 -59159-3 0  9998
2 48071  87.8932 101.3403 0001872  72.9109 287.2225 13.13468630161435
ONEWEB-0174             
1 48072U 21025AG  24189.76678575 -.00000027  00000+0 -11001-3 0  9992
2 48072  87.8932 101.4340 0001923  81.8223 278.3124 13.13467777160709
ONEWEB-0175             
1 48073U 21025AH  24189.26211523  .00000052  00000+0  10682-3 0  9994
2 48073  87.8923 101.5217 0002107  67.7072 292.4280 13.13470495160299
ONEWEB-0177             
1 48074U 21025AJ  24189.80806631  .00000168  00000+0  42425-3 0  9993
2 48074  87.8926 101.4212 0001522  80.4534 279.6767 13.13473925160559
ONEWEB-0178             
1 48075U 21025AK  24189.82564683  .00000358  00000+0  94643-3 0  9994
2 48075  87.8936 101.4371 0001750  77.5291 282.6034 13.13469207160602
ONEWEB-0108             
1 48076U 21025AL  24190.16672205 -.00000226  00000+0 -65281-3 0  9996
2 48076  87.8926 101.3471 0002111  82.5597 277.5772 13.13469954160587
ONEWEB-0169             
1 48077U 21025AM  24189.81757206  .00000314  00000+0  82550-3 0  9996
2 48077  87.8928 101.4272 0002078  83.1633 276.9733 13.13468512160422
ONEWEB-0176             
1 48210U 21031A   24189.38063643 -.00000077  00000+0 -24142-3 0  9990
2 48210  87.8952  70.9095 0001856  77.7130 282.4208 13.14501487155068
ONEWEB-0184             
1 48211U 21031B   24190.19097958  .00000303  00000+0  78232-3 0  9997
2 48211  87.8947  70.7309 0002032  48.4902 311.6401 13.14502214155146
ONEWEB-0179             
1 48212U 21031C   24189.17131837 -.00000083  00000+0 -25798-3 0  9995
2 48212  87.8952  70.9379 0001722  79.3429 280.7894 13.14502836155056
ONEWEB-0180             
1 48213U 21031D   24190.19413229  .00001061  00000+0  28270-2 0  9990
2 48213  87.8948  70.7315 0001663  80.4466 279.6852 13.14509284155075
ONEWEB-0218             
1 48214U 21031E   24189.37906041 -.00000014  00000+0 -73325-4 0  9990
2 48214  87.8951  70.8957 0001759  42.7109 317.4157 13.14503164155120
ONEWEB-0209             
1 48215U 21031F   24189.74855078  .00000179  00000+0  44776-3 0  9992
2 48215  87.8953  70.8566 0001617  80.5639 279.5673 13.14502960155179
ONEWEB-0198             
1 48216U 21031G   24190.18939788  .00000253  00000+0  64726-3 0  9994
2 48216  87.8949  70.7733 0001542  67.8092 292.3201 13.14503749155321
ONEWEB-0189             
1 48217U 21031H   24189.59313606  .00000270  00000+0  69272-3 0  9993
2 48217  87.8951  70.8676 0001461  67.3096 292.8188 13.14501531155002
ONEWEB-0196             
1 48218U 21031J   24189.72318226  .00000103  00000+0  24452-3 0  9998
2 48218  87.8951  70.8458 0001809  76.5043 283.6288 13.14501842155016
ONEWEB-0183             
1 48219U 21031K   24189.69781689 -.00000193  00000+0 -55450-3 0  9995
2 48219  87.8951  70.8669 0001750  83.1725 276.9604 13.14503427155116
ONEWEB-0185             
1 48220U 21031L   24189.72396574  .00000142  00000+0  34828-3 0  9994
2 48220  87.8951  70.8340 0001678  83.2684 276.8636 13.14502074155041
