OBJECT_NAME,OBJECT_ID,EPOCH,MEAN_MOTION,ECCENTRICITY,INCLINATION,RA_OF_ASC_NODE,ARG_OF_PERICENTER,MEAN_ANOMALY,EPHEMERIS_TYPE,CLASSIFICATION_TYPE,NORAD_CAT_ID,ELEMENT_SET_NO,REV_AT_EPOCH,BSTAR,MEAN_MOTION_DOT,MEAN_MOTION_DDOT
ONEWEB-0149,2021-025S,2024-07-07T19:00:43.782624,13.13468704,.0001957,87.8927,101.4288,85.1186,275.0166,0,U,48058,999,16037,-.64018E-3,-.221E-5,0
ONEWEB-0148,2021-025T,2024-07-07T20:00:10.663200,13.13469262,.0001745,87.8932,101.4316,97.8377,262.2950,0,U,48059,999,16049,.60657E-3,.234E-5,0
ONEWEB-0160,2021-025U,2024-07-07T20:23:01.209984,13.13469929,.0002904,87.8932,101.4244,76.6880,283.4573,0,U,48060,999,16044,-.37685E-3,-.125E-5,0
ONEWEB-0163,2021-025V,2024-07-07T18:12:44.837856,13.13468611,.0001637,87.8930,101.4344,77.8556,282.2756,0,U,48061,999,16056,.52356E-3,.204E-5,0
ONEWEB-0159,2021-025W,2024-07-07T19:46:26.878080,13.13468558,.0001773,87.8927,101.4048,82.2961,277.8370,0,U,48062,999,16048,.98665E-3,.373E-5,0
ONEWEB-0164,2021-025X,2024-07-07T19:21:18.982944,13.13471591,.0002018,87.8927,101.4182,74.4033,285.7318,0,U,48063,999,16047,.40994E-3,.162E-5,0
ONEWEB-0167,2021-025Y,2024-07-08T03:22:21.864576,13.13468815,.000175,87.8930,101.3639,78.7092,281.4234,0,U,48064,999,16049,.74053E-3,.283E-5,0
ONEWEB-0166,2021-025Z,2024-07-07T18:44:43.713600,13.13468087,.0001926,87.8924,101.4178,84.2109,275.9239,0,U,48065,999,16052,-.68348E-3,-.237E-5,0
ONEWEB-0151,2021-025AA,2024-07-08T03:55:30.451296,13.13472362,.0001983,87.8927,101.3559,73.3201,286.8146,0,U,48066,999,16052,-.51903E-3,-.177E-5,0
ONEWEB-0170,2021-025AB,2024-07-07T18:58:27.687936,13.13469927,.0002409,87.8927,101.4323,65.6776,294.4605,0,U,48067,999,16042,-.91102E-3,-.32E-5,0
ONEWEB-0168,2021-025AC,2024-07-08T03:46:21.293760,13.13468203,.0001891,87.8931,101.3298,78.2838,281.8503,0,U,48068,999,16048,-.31385E-3,-.102E-5,0
ONEWEB-0173,2021-025AD,2024-07-07T18:26:27.286368,13.13468628,.0001582,87.8931,101.4172,67.8014,292.3283,0,U,48069,999,16067,-.27663E-3,-.88E-6,0
ONEWEB-0171,2021-025AE,2024-07-07T19:19:01.529184,13.13469725,.0001902,87.8930,101.4456,73.6835,286.4503,0,U,48070,999,16049,.1615E-3,.72E-6,0
ONEWEB-0172,2021-025AF,2024-07-08T03:57:46.507968,13.13468630,.0001872,87.8932,101.3403,72.9109,287.2225,0,U,48071,999,16143,-.59159E-3,-.203E-5,0
ONEWEB-0174,2021-025AG,2024-07-07T18:24:10.288800,13.13467777,.0001923,87.8932,101.4340,81.8223,278.3124,0,U,48072,999,16070,-.11001E-3,-.27E-6,0
ONEWEB-0175,2021-025AH,2024-07-07T06:17:26.755872,13.13470495,.0002107,87.8923,101.5217,67.7072,292.4280,0,U,48073,999,16029,.10682E-3,.52E-6,0
ONEWEB-0177,2021-025AJ,2024-07-07T19:23:36.929184,13.13473925,.0001522,87.8926,101.4212,80.4534,279.6767,0,U,48074,999,16055,.42425E-3,.168E-5,0
ONEWEB-0178,2021-025AK,2024-07-07T19:48:55.886112,13.13469207,.000175,87.8936,101.4371,77.5291,282.6034,0,U,48075,999,16060,.94643E-3,.358E-5,0
ONEWEB-0108,2021-025AL,2024-07-08T04:00:04.785120,13.13469954,.0002111,87.8926,101.3471,82.5597,277.5772,0,U,48076,999,16058,-.65281E-3,-.226E-5,0
ONEWEB-0169,2021-025AM,2024-07-07T19:37:18.225984,13.13468512,.0002078,87.8928,101.4272,83.1633,276.9733,0,U,48077,999,16042,.8255E-3,.314E-5,0
ONEWEB-0176,2021-031A,2024-07-07T09:08:06.987552,13.14501487,.0001856,87.8952,70.9095,77.7130,282.4208,0,U,48210,999,15506,-.24142E-3,-.77E-6,0
ONEWEB-0184,2021-031B,2024-07-08T04:35:00.635712,13.14502214,.0002032,87.8947,70.7309,48.4902,311.6401,0,U,48211,999,15514,.78232E-3,.303E-5,0
ONEWEB-0179,2021-031C,2024-07-07T04:06:41.907168,13.14502836,.0001722,87.8952,70.9379,79.3429,280.7894,0,U,48212,999,15505,-.25798E-3,-.83E-6,0
ONEWEB-0180,2021-031D,2024-07-08T04:39:33.029856,13.14509284,.0001663,87.8948,70.7315,80.4466,279.6852,0,U,48213,999,15507,.2827E-2,.1061E-4,0
ONEWEB-0218,2021-031E,2024-07-07T09:05:50.819424,13.14503164,.0001759,87.8951,70.8957,42.7109,317.4157,0,U,48214,999,15512,-.73325E-4,-.14E-6,0
ONEWEB-0209,2021-031F,2024-07-07T17:57:54.787392,13.14502960,.0001617,87.8953,70.8566,80.5639,279.5673,0,U,48215,999,15517,.44776E-3,.179E-5,0
ONEWEB-0198,2021-031G,2024-07-08T04:32:43.976832,13.14503749,.0001542,87.8949,70.7733,67.8092,292.3201,0,U,48216,999,15532,.64726E-3,.253E-5,0
ONEWEB-0189,2021-031H,2024-07-07T14:14:06.955584,13.14501531,.0001461,87.8951,70.8676,67.3096,292.8188,0,U,48217,999,15500,.69272E-3,.27E-5,0
ONEWEB-0196,2021-031J,2024-07-07T17:21:22.947264,13.14501842,.0001809,87.8951,70.8458,76.5043,283.6288,0,U,48218,999,15501,.24452E-3,.103E-5,0
ONEWEB-0183,2021-031K,2024-07-07T16:44:51.379296,13.14503427,.000175,87.8951,70.8669,83.1725,276.9604,0,U,48219,999,15511,-.5545E-3,-.193E-5,0
ONEWEB-0185,2021-031L,2024-07-07T17:22:30.639936,13.14502074,.0001678,87.8951,70.8340,83.2684,276.8636,0,U,48220,999,15504,.34828E-3,.142E-5,0
